{
    "links": {
        "self": "http://www.neowsapp.com/rest/v1/neo/54075989?api_key=iIulBulltgU6a56xZRHN4H3l9WmuAYTsLGpBGhQ2"
    },
    "id": "54075989",
    "neo_reference_id": "54075989",
    "name": "(2020 UR3)",
    "designation": "2020 UR3",
    "nasa_jpl_url": "http://ssd.jpl.nasa.gov/sbdb.cgi?sstr=54075989",
    "absolute_magnitude_h": 24.897,
    "estimated_diameter": {
        "kilometers": {
            "estimated_diameter_min": 0.0278711556,
            "estimated_diameter_max": 0.0623217986
        },
        "meters": {
            "estimated_diameter_min": 27.8711556453,
            "estimated_diameter_max": 62.3217986345
        },
        "miles": {
            "estimated_diameter_min": 0.0173183279,
            "estimated_diameter_max": 0.0387249583
        },
        "feet": {
            "estimated_diameter_min": 91.4408022875,
            "estimated_diameter_max": 204.4678498319
        }
    },
    "is_potentially_hazardous_asteroid": false,
    "close_approach_data": [
        {
            "close_approach_date": "2020-10-13",
            "close_approach_date_full": "2020-Oct-13 14:12",
            "epoch_date_close_approach": 1602598320000,
            "relative_velocity": {
                "kilometers_per_second": "13.4810158469",
                "kilometers_per_hour": "48531.6570487968",
                "miles_per_hour": "30155.6843479038"
            },
            "miss_distance": {
                "astronomical": "0.0598776799",
                "lunar": "23.2924174811",
                "kilometers": "8957573.373581813",
                "miles": "5565977.9965144994"
            },
            "orbiting_body": "Earth"
        }
    ],
    "orbital_data": {
        "orbit_id": "1",
        "orbit_determination_date": "2020-10-22 09:03:50",
        "first_observation_date": "2020-10-20",
        "last_observation_date": "2020-10-22",
        "data_arc_in_days": 2,
        "observations_used": 24,
        "orbit_uncertainty": "9",
        "minimum_orbit_intersection": ".0596504",
        "jupiter_tisserand_invariant": "4.266",
        "epoch_osculation": "2459143.5",
        "eccentricity": ".3438557736674376",
        "semi_major_axis": "1.569451882695517",
        "inclination": "22.79055769428348",
        "ascending_node_longitude": "203.1676597758306",
        "orbital_period": "718.1587146704801",
        "perihelion_distance": "1.029786791337434",
        "perihelion_argument": "152.7364585819674",
        "aphelion_distance": "2.109116974053602",
        "perihelion_time": "2459113.208584223145",
        "mean_anomaly": "15.18453993094188",
        "mean_motion": ".5012819487474748",
        "equinox": "J2000",
        "orbit_class": {
            "orbit_class_type": "AMO",
            "orbit_class_description": "Near-Earth asteroid orbits similar to that of 1221 Amor",
            "orbit_class_range": "1.017 AU < q (perihelion) < 1.3 AU"
        }
    },
    "is_sentry_object": false
}